[Satellite]
VERSION=1.1
NAME=IRIDIUM 107
NICKNAME=IRIDIUM 107
TLE1=1 42960U 17061F   22342.33516319  .00000525  00000+0  18042-3 0  9999
TLE2=2 42960  86.4005 203.0090 0001862  86.3420 273.7989 14.34215652270377
STATUS=0
